OBJECT_NAME,OBJECT_ID,EPOCH,MEAN_MOTION,ECCENTRICITY,INCLINATION,RA_OF_ASC_NODE,ARG_OF_PERICENTER,MEAN_ANOMALY,EPHEMERIS_TYPE,CLASSIFICATION_TYPE,NORAD_CAT_ID,ELEMENT_SET_NO,REV_AT_EPOCH,BSTAR,MEAN_MOTION_DOT,MEAN_MOTION_DDOT
FENGYUN 3D,2017-072A,2026-06-09T23:00:51.354144,14.19737969,.00026411,99.0124,135.2505,73.8909,286.2557,0,U,43010,999,44396,-.12195785E-4,-.72E-6,0
NOAA 20 (JPSS-1),2017-073A,2026-06-09T19:28:52.657248,14.19510391,.00004127,98.7771,100.3399,46.2481,313.8729,0,U,43013,999,44342,.38725131E-4,.37E-6,0
GOES 17,2018-022A,2026-06-09T14:37:25.915872,1.00271448,.00005653,0.9169,85.8521,15.6485,286.3536,0,U,43226,999,3034,0,-.165E-5,0
SENTINEL-3B,2018-039A,2026-06-09T16:27:33.399936,14.26739692,.00008411,98.6249,228.3256,79.2516,280.8759,0,U,43437,999,42305,.57478359E-4,.95E-6,0
FENGYUN 2H,2018-050A,2026-06-09T22:16:08.234976,1.00270963,.00016666,3.0115,79.1611,127.6158,105.0010,0,U,43491,999,2936,0,-.114E-5,0
METOP-C,2018-087A,2026-06-09T19:38:07.285632,14.21510100,.00014895,98.6646,220.5562,137.8310,222.2982,0,U,43689,999,39378,.54846133E-4,.77E-6,0
GEO-KOMPSAT-2A,2018-100A,2026-06-09T19:04:50.105568,1.00269926,.00022325,0.0520,130.4715,314.0489,228.1123,0,U,43823,999,2755,0,-.326E-5,0
METEOR-M2 2,2019-038A,2026-06-09T22:32:15.436320,14.24364704,.00022529,98.9146,148.1173,60.1127,300.0275,0,U,44387,999,36026,.13565728E-3,.268E-5,0
ARKTIKA-M 1,2021-016A,2026-06-09T12:22:37.726752,2.00625436,.72856739,63.2417,58.7595,269.8905,14.6803,0,U,47719,999,3863,0,-.149E-5,0
FENGYUN 3E,2021-062A,2026-06-09T22:38:47.160960,14.19902262,.00027791,98.7497,164.4322,97.6684,262.4808,0,U,49008,999,25555,-.12423381E-3,-.308E-5,0
GOES 18,2022-021A,2026-06-09T17:49:07.040640,1.00271121,.0000484,0.0450,135.5773,6.1617,246.6508,0,U,51850,999,651,0,.114E-5,0
NOAA 21 (JPSS-2),2022-150A,2026-06-09T16:53:38.979168,14.19564178,.00012278,98.7059,99.6188,171.9720,188.1476,0,U,54234,999,18548,.42905347E-4,.47E-6,0
METEOSAT-12 (MTG-I1),2022-170C,2026-06-09T16:45:26.938944,1.00271645,.00033373,0.7294,21.6324,71.4720,55.9017,0,U,54743,999,1290,0,.9E-7,0
TIANMU-1 03,2023-039A,2026-06-09T22:27:36.964800,15.47080119,.00041627,97.5235,334.6230,117.3349,242.8325,0,U,55973,999,17971,.29100699E-3,.14649E-3,0
TIANMU-1 04,2023-039B,2026-06-09T22:16:28.406784,15.47670832,.00047449,97.5172,333.7681,114.2012,245.9734,0,U,55974,999,17972,.29614086E-3,.1522E-3,0
TIANMU-1 05,2023-039C,2026-06-09T21:59:25.179360,15.47005447,.00038256,97.5213,334.2204,131.6118,228.5459,0,U,55975,999,17969,.29857828E-3,.14994E-3,0
TIANMU-1 06,2023-039D,2026-06-09T22:20:41.944128,15.47577672,.00040885,97.5224,334.8639,128.6583,231.5033,0,U,55976,999,17972,.2958202E-3,.15153E-3,0
FENGYUN 3G,2023-055A,2026-06-09T03:00:18.071424,15.54457419,.0005565,49.9935,27.5514,167.7824,192.3280,0,U,56232,999,17875,.34170294E-3,.22526E-3,0
METEOR-M2 3,2023-091A,2026-06-09T22:21:40.209696,14.24046149,.00039459,98.6091,216.0582,174.5025,185.6198,0,U,57166,999,15348,.1472022E-4,-.9E-7,0
TIANMU-1 07,2023-101A,2026-06-09T21:42:58.233024,15.29723007,.00036982,97.2600,211.7406,136.4542,223.6992,0,U,57399,999,16053,.20343525E-3,.5784E-4,0
TIANMU-1 08,2023-101B,2026-06-09T22:29:09.580416,15.29728189,.00052483,97.2587,211.5436,132.8784,227.2899,0,U,57400,999,16053,.20198129E-3,.5744E-4,0
TIANMU-1 09,2023-101C,2026-06-09T22:05:28.723776,15.29756845,.00040836,97.2546,210.9471,143.6523,216.4996,0,U,57401,999,16053,.20745271E-3,.5906E-4,0
TIANMU-1 10,2023-101D,2026-06-09T22:52:52.717152,15.29728134,.00056993,97.2625,212.0223,145.2333,214.9281,0,U,57402,999,16053,.21462435E-3,.6109E-4,0
FENGYUN 3F,2023-111A,2026-06-09T22:15:52.123968,14.19937860,.00015859,98.6841,231.0714,98.5420,261.5936,0,U,57490,999,14783,.37327238E-4,.36E-6,0
ARKTIKA-M 2,2023-198A,2026-06-03T07:17:21.587712,2.00591941,.68985494,63.2209,155.9142,267.4684,18.7857,0,U,58584,999,1804,0,.15E-5,0
TIANMU-1 11,2023-205A,2026-06-09T21:51:10.833984,15.26920246,.00098048,97.3453,182.5818,40.7289,319.4682,0,U,58645,999,13641,.19483619E-3,.5084E-4,0
TIANMU-1 12,2023-205B,2026-06-09T22:42:37.376352,15.26883036,.00076433,97.3441,182.3741,28.3620,331.8034,0,U,58646,999,13640,.2119423E-3,.5528E-4,0
TIANMU-1 13,2023-205C,2026-06-09T21:53:35.318112,15.26737026,.00067948,97.3469,182.6121,8.7987,351.3370,0,U,58647,999,13639,.20115497E-3,.5218E-4,0
TIANMU-1 14,2023-205D,2026-06-09T21:32:35.505024,15.26781589,.00077846,97.3405,181.7853,12.3541,347.7887,0,U,58648,999,13639,.20125277E-3,.5229E-4,0
TIANMU-1 19,2023-208A,2026-06-09T21:41:39.666048,15.31464288,.00044219,97.4491,277.1677,358.9822,1.1410,0,U,58660,999,13621,.24860097E-3,.7477E-4,0
