FENGYUN 3D              
1 43010U 17072A   26160.95892771 -.00000072  00000+0 -12196-4 0  9991
2 43010  99.0124 135.2505 0002641  73.8909 286.2557 14.19737969443962
NOAA 20 (JPSS-1)        
1 43013U 17073A   26160.81172057  .00000037  00000+0  38725-4 0  9993
2 43013  98.7771 100.3399 0000412  46.2481 313.8729 14.19510391443423
GOES 17                 
1 43226U 18022A   26160.60932773 -.00000165  00000+0  00000+0 0  9993
2 43226   0.9169  85.8521 0000565  15.6485 286.3536  1.00271448 30348
SENTINEL-3B             
1 43437U 18039A   26160.68580324  .00000095  00000+0  57478-4 0  9991
2 43437  98.6249 228.3256 0000841  79.2516 280.8759 14.26739692423054
FENGYUN 2H              
1 43491U 18050A   26160.92787309 -.00000114  00000+0  00000+0 0  9990
2 43491   3.0115  79.1611 0001666 127.6158 105.0010  1.00270963 29362
METOP-C                 
1 43689U 18087A   26160.81813988  .00000077  00000+0  54846-4 0  9999
2 43689  98.6646 220.5562 0001489 137.8310 222.2982 14.21510100393780
GEO-KOMPSAT-2A          
1 43823U 18100A   26160.79502437 -.00000326  00000+0  00000+0 0  9992
2 43823   0.0520 130.4715 0002232 314.0489 228.1123  1.00269926 27551
METEOR-M2 2             
1 44387U 19038A   26160.93906755  .00000268  00000+0  13566-3 0  9995
2 44387  98.9146 148.1173 0002252  60.1127 300.0275 14.24364704360267
ARKTIKA-M 1             
1 47719U 21016A   26160.51571443 -.00000149  00000+0  00000+0 0  9996
2 47719  63.2417  58.7595 7285673 269.8905  14.6803  2.00625436 38639
FENGYUN 3E              
1 49008U 21062A   26160.94360140 -.00000308  00000+0 -12423-3 0  9991
2 49008  98.7497 164.4322 0002779  97.6684 262.4808 14.19902262255552
GOES 18                 
1 51850U 22021A   26160.74244260  .00000114  00000+0  00000+0 0  9994
2 51850   0.0450 135.5773 0000484   6.1617 246.6508  1.00271121  6516
NOAA 21 (JPSS-2)        
1 54234U 22150A   26160.70392337  .00000047  00000+0  42905-4 0  9991
2 54234  98.7059  99.6188 0001227 171.9720 188.1476 14.19564178185485
METEOSAT-12 (MTG-I1)    
1 54743U 22170C   26160.69822846  .00000009  00000+0  00000+0 0  9992
2 54743   0.7294  21.6324 0003337  71.4720  55.9017  1.00271645 12907
TIANMU-1 03             
1 55973U 23039A   26160.93584450  .00014649  00000+0  29101-3 0  9998
2 55973  97.5235 334.6230 0004162 117.3349 242.8325 15.47080119179711
TIANMU-1 04             
1 55974U 23039B   26160.92810656  .00015220  00000+0  29614-3 0  9993
2 55974  97.5172 333.7681 0004744 114.2012 245.9734 15.47670832179727
TIANMU-1 05             
1 55975U 23039C   26160.91626365  .00014994  00000+0  29858-3 0  9992
2 55975  97.5213 334.2204 0003825 131.6118 228.5459 15.47005447179691
TIANMU-1 06             
1 55976U 23039D   26160.93104102  .00015153  00000+0  29582-3 0  9997
2 55976  97.5224 334.8639 0004088 128.6583 231.5033 15.47577672179726
FENGYUN 3G              
1 56232U 23055A   26160.12520916  .00022526  00000+0  34170-3 0  9998
2 56232  49.9935  27.5514 0005565 167.7824 192.3280 15.54457419178757
METEOR-M2 3             
1 57166U 23091A   26160.93171539 -.00000009  00000+0  14720-4 0  9990
2 57166  98.6091 216.0582 0003945 174.5025 185.6198 14.24046149153483
TIANMU-1 07             
1 57399U 23101A   26160.90484066  .00005784  00000+0  20344-3 0  9991
2 57399  97.2600 211.7406 0003698 136.4542 223.6992 15.29723007160535
TIANMU-1 08             
1 57400U 23101B   26160.93691644  .00005744  00000+0  20198-3 0  9992
2 57400  97.2587 211.5436 0005248 132.8784 227.2899 15.29728189160536
TIANMU-1 09             
1 57401U 23101C   26160.92047134  .00005906  00000+0  20745-3 0  9999
2 57401  97.2546 210.9471 0004083 143.6523 216.4996 15.29756845160539
TIANMU-1 10             
1 57402U 23101D   26160.95338793  .00006109  00000+0  21462-3 0  9990
2 57402  97.2625 212.0223 0005699 145.2333 214.9281 15.29728134160537
FENGYUN 3F              
1 57490U 23111A   26160.92768662  .00000036  00000+0  37327-4 0  9998
2 57490  98.6841 231.0714 0001585  98.5420 261.5936 14.19937860147831
ARKTIKA-M 2             
1 58584U 23198A   26154.30372208  .00000150  00000+0  00000+0 0  9990
2 58584  63.2209 155.9142 6898549 267.4684  18.7857  2.00591941 18047
TIANMU-1 11             
1 58645U 23205A   26160.91054206  .00005084  00000+0  19484-3 0  9997
2 58645  97.3453 182.5818 0009804  40.7289 319.4682 15.26920246136410
TIANMU-1 12             
1 58646U 23205B   26160.94626593  .00005528  00000+0  21194-3 0  9999
2 58646  97.3441 182.3741 0007643  28.3620 331.8034 15.26883036136404
TIANMU-1 13             
1 58647U 23205C   26160.91221433  .00005218  00000+0  20115-3 0  9999
2 58647  97.3469 182.6121 0006794   8.7987 351.3370 15.26737026136399
TIANMU-1 14             
1 58648U 23205D   26160.89763316  .00005229  00000+0  20125-3 0  9991
2 58648  97.3405 181.7853 0007784  12.3541 347.7887 15.26781589136394
TIANMU-1 19             
1 58660U 23208A   26160.90393132  .00007477  00000+0  24860-3 0  9992
2 58660  97.4491 277.1677 0004421 358.9822   1.1410 15.31464288136218
